start=new Date('2023-01-26T00:00:00.000Z').valueOf();
sats=[{"TIME_SYSTEM":"UTC","GP_ID":"223692735","ARG_OF_PERICENTER":"95.0997","OBJECT_TYPE":"PAYLOAD","ECCENTRICITY":"0.00012970","OBJECT_ID":"2022-107R","FILE":"3761297","APOAPSIS":"540.602","COUNTRY_CODE":"US","SITE":"AFETR","SEMIMAJOR_AXIS":"6917.840","MEAN_ANOMALY":"265.0143","LAUNCH_DATE":"2022-09-05","ELEMENT_SET_NO":"999","MEAN_MOTION_DDOT":"0.0000000000000","MEAN_MOTION":"15.08853225","PERIOD":"95.437","DECAY_DATE":null,"EPOCH":"2023-01-25T12:47:38.321088","EPHEMERIS_TYPE":"0","PERIAPSIS":"538.808","MEAN_ELEMENT_THEORY":"SGP4","CLASSIFICATION_TYPE":"U","INCLINATION":"53.2195","REF_FRAME":"TEME","RCS_SIZE":"LARGE","NORAD_CAT_ID":"53715","RA_OF_ASC_NODE":"327.7033","CENTER_NAME":"EARTH","OBJECT_NAME":"STARLINK-4686","TLE_LINE2":"2 53715  53.2195 327.7033 0001297  95.0997 265.0143 15.08853225 22443","MEAN_MOTION_DOT":"0.00013051","BSTAR":"0.00083629000000","REV_AT_EPOCH":"2244","TLE_LINE1":"1 53715U 22107R   23025.53308242  .00013051  00000-0  83629-3 0  9993"},{"INCLINATION":"53.2206","REF_FRAME":"TEME","RCS_SIZE":"LARGE","NORAD_CAT_ID":"53716","RA_OF_ASC_NODE":"327.6821","CENTER_NAME":"EARTH","OBJECT_NAME":"STARLINK-4699","TLE_LINE2":"2 53716  53.2206 327.6821 0001835  70.8791 289.2400 15.08843716 22439","MEAN_MOTION_DOT":"0.00009074","BSTAR":"0.00058743000000","REV_AT_EPOCH":"2243","TLE_LINE1":"1 53716U 22107S   23025.52940368  .00009074  00000-0  58743-3 0  9993","TIME_SYSTEM":"UTC","ARG_OF_PERICENTER":"70.8791","GP_ID":"223691488","OBJECT_TYPE":"PAYLOAD","OBJECT_ID":"2022-107S","ECCENTRICITY":"0.00018350","FILE":"3761297","APOAPSIS":"541.003","COUNTRY_CODE":"US","SITE":"AFETR","SEMIMAJOR_AXIS":"6917.869","MEAN_ANOMALY":"289.2400","ELEMENT_SET_NO":"999","LAUNCH_DATE":"2022-09-05","MEAN_MOTION":"15.08843716","MEAN_MOTION_DDOT":"0.0000000000000","PERIOD":"95.437","DECAY_DATE":null,"EPOCH":"2023-01-25T12:42:20.477952","EPHEMERIS_TYPE":"0","PERIAPSIS":"538.465","MEAN_ELEMENT_THEORY":"SGP4","CLASSIFICATION_TYPE":"U"},{"INCLINATION":"53.2199","NORAD_CAT_ID":"53718","RCS_SIZE":"LARGE","REF_FRAME":"TEME","CENTER_NAME":"EARTH","RA_OF_ASC_NODE":"327.6572","OBJECT_NAME":"STARLINK-4695","BSTAR":"0.00099158000000","MEAN_MOTION_DOT":"0.00015532","TLE_LINE2":"2 53718  53.2199 327.6572 0001654  91.6078 268.5103 15.08848788 22437","REV_AT_EPOCH":"2243","TLE_LINE1":"1 53718U 22107U   23025.52571890  .00015532  00000-0  99158-3 0  9996","ECCENTRICITY":"0.00016540","OBJECT_ID":"2022-107U","OBJECT_TYPE":"PAYLOAD","ARG_OF_PERICENTER":"91.6078","GP_ID":"223691236","TIME_SYSTEM":"UTC","COUNTRY_CODE":"US","APOAPSIS":"540.863","FILE":"3761297","SITE":"AFETR","LAUNCH_DATE":"2022-09-05","ELEMENT_SET_NO":"999","MEAN_ANOMALY":"268.5103","SEMIMAJOR_AXIS":"6917.854","MEAN_MOTION":"15.08848788","MEAN_MOTION_DDOT":"0.0000000000000","PERIOD":"95.437","EPHEMERIS_TYPE":"0","EPOCH":"2023-01-25T12:37:02.112960","DECAY_DATE":null,"CLASSIFICATION_TYPE":"U","PERIAPSIS":"538.574","MEAN_ELEMENT_THEORY":"SGP4"},{"APOAPSIS":"526.993","FILE":"3761360","COUNTRY_CODE":"US","ARG_OF_PERICENTER":"95.2299","GP_ID":"223719784","TIME_SYSTEM":"UTC","OBJECT_ID":"2022-107V","ECCENTRICITY":"0.00014350","OBJECT_TYPE":"PAYLOAD","SEMIMAJOR_AXIS":"6904.137","ELEMENT_SET_NO":"999","LAUNCH_DATE":"2022-09-05","MEAN_ANOMALY":"170.2739","SITE":"AFETR","PERIOD":"95.153","MEAN_MOTION_DDOT":"0.0000000000000","MEAN_MOTION":"15.13347407","MEAN_ELEMENT_THEORY":"SGP4","PERIAPSIS":"525.012","CLASSIFICATION_TYPE":"U","EPOCH":"2023-01-25T22:00:00.999936","DECAY_DATE":null,"EPHEMERIS_TYPE":"0","RCS_SIZE":"LARGE","REF_FRAME":"TEME","NORAD_CAT_ID":"53719","INCLINATION":"53.2112","OBJECT_NAME":"STARLINK-4644","RA_OF_ASC_NODE":"296.7643","CENTER_NAME":"EARTH","REV_AT_EPOCH":"130","MEAN_MOTION_DOT":"-0.00935727","TLE_LINE2":"2 53719  53.2112 296.7643 0001435  95.2299 170.2739 15.13347407  1305","BSTAR":"-0.05614300000000","TLE_LINE1":"1 53719U 22107V   23025.91667824 -.00935727  00000-0 -56143-1 0  9997"},{"MEAN_MOTION_DOT":"-0.00000113","TLE_LINE2":"2 53720  53.2200 327.7250 0001235  68.8905 291.2219 15.08836449 22440","BSTAR":"0.00001101700000","REV_AT_EPOCH":"2244","TLE_LINE1":"1 53720U 22107W   23025.53677192 -.00000113  00000-0  11017-4 0  9991","INCLINATION":"53.2200","RCS_SIZE":"LARGE","REF_FRAME":"TEME","NORAD_CAT_ID":"53720","RA_OF_ASC_NODE":"327.7250","CENTER_NAME":"EARTH","OBJECT_NAME":"STARLINK-4642","MEAN_MOTION_DDOT":"0.0000000000000","MEAN_MOTION":"15.08836449","PERIOD":"95.438","EPOCH":"2023-01-25T12:52:57.093888","DECAY_DATE":null,"EPHEMERIS_TYPE":"0","MEAN_ELEMENT_THEORY":"SGP4","PERIAPSIS":"538.902","CLASSIFICATION_TYPE":"U","ARG_OF_PERICENTER":"68.8905","GP_ID":"223692238","TIME_SYSTEM":"UTC","OBJECT_ID":"2022-107W","ECCENTRICITY":"0.00012350","OBJECT_TYPE":"PAYLOAD","APOAPSIS":"540.611","FILE":"3761297","COUNTRY_CODE":"US","SITE":"AFETR","SEMIMAJOR_AXIS":"6917.891","ELEMENT_SET_NO":"999","LAUNCH_DATE":"2022-09-05","MEAN_ANOMALY":"291.2219"},{"RA_OF_ASC_NODE":"327.7763","CENTER_NAME":"EARTH","OBJECT_NAME":"STARLINK-4707","INCLINATION":"53.2201","RCS_SIZE":"LARGE","REF_FRAME":"TEME","NORAD_CAT_ID":"53721","TLE_LINE1":"1 53721U 22107X   23025.54414031  .00008181  00000-0  53140-3 0  9998","MEAN_MOTION_DOT":"0.00008181","TLE_LINE2":"2 53721  53.2201 327.7763 0001631  84.0443 276.0735 15.08845671 22449","BSTAR":"0.00053140000000","REV_AT_EPOCH":"2244","SITE":"AFETR","SEMIMAJOR_AXIS":"6917.863","ELEMENT_SET_NO":"999","LAUNCH_DATE":"2022-09-05","MEAN_ANOMALY":"276.0735","GP_ID":"223690988","ARG_OF_PERICENTER":"84.0443","TIME_SYSTEM":"UTC","ECCENTRICITY":"0.00016310","OBJECT_ID":"2022-107X","OBJECT_TYPE":"PAYLOAD","APOAPSIS":"540.856","FILE":"3761297","COUNTRY_CODE":"US","EPOCH":"2023-01-25T13:03:33.722784","DECAY_DATE":null,"EPHEMERIS_TYPE":"0","MEAN_ELEMENT_THEORY":"SGP4","PERIAPSIS":"538.600","CLASSIFICATION_TYPE":"U","MEAN_MOTION":"15.08845671","MEAN_MOTION_DDOT":"0.0000000000000","PERIOD":"95.437"},{"LAUNCH_DATE":"2022-09-05","ELEMENT_SET_NO":"999","MEAN_ANOMALY":"299.4741","SEMIMAJOR_AXIS":"6917.920","SITE":"AFETR","COUNTRY_CODE":"US","APOAPSIS":"540.355","FILE":"3761311","ECCENTRICITY":"0.00008230","OBJECT_ID":"2022-107Y","OBJECT_TYPE":"PAYLOAD","ARG_OF_PERICENTER":"60.6333","GP_ID":"223693100","TIME_SYSTEM":"UTC","CLASSIFICATION_TYPE":"U","PERIAPSIS":"539.216","MEAN_ELEMENT_THEORY":"SGP4","EPHEMERIS_TYPE":"0","EPOCH":"2023-01-25T12:54:19.442592","DECAY_DATE":null,"PERIOD":"95.438","MEAN_MOTION_DDOT":"0.0000000000000","MEAN_MOTION":"15.08826900","OBJECT_NAME":"STARLINK-4700","CENTER_NAME":"EARTH","RA_OF_ASC_NODE":"327.7387","NORAD_CAT_ID":"53722","RCS_SIZE":"LARGE","REF_FRAME":"TEME","INCLINATION":"53.2185","TLE_LINE1":"1 53722U 22107Y   23025.53772503  .00016531  00000-0  10547-2 0  9990","REV_AT_EPOCH":"2198","BSTAR":"0.00105470000000","MEAN_MOTION_DOT":"0.00016531","TLE_LINE2":"2 53722  53.2185 327.7387 0000823  60.6333 299.4741 15.08826900 21981"},{"TLE_LINE2":"2 53722  53.2185 327.7387 0000823  60.6333 299.4741 15.08826900 22432","MEAN_MOTION_DOT":"0.00016531","BSTAR":"0.00105470000000","REV_AT_EPOCH":"2243","TLE_LINE1":"1 53722U 22107Y   23025.53772503  .00016531  00000-0  10547-2 0  9990","INCLINATION":"53.2185","REF_FRAME":"TEME","RCS_SIZE":"LARGE","NORAD_CAT_ID":"53722","RA_OF_ASC_NODE":"327.7387","CENTER_NAME":"EARTH","OBJECT_NAME":"STARLINK-4700","MEAN_MOTION_DDOT":"0.0000000000000","MEAN_MOTION":"15.08826900","PERIOD":"95.438","DECAY_DATE":null,"EPOCH":"2023-01-25T12:54:19.442592","EPHEMERIS_TYPE":"0","MEAN_ELEMENT_THEORY":"SGP4","PERIAPSIS":"539.216","CLASSIFICATION_TYPE":"U","TIME_SYSTEM":"UTC","ARG_OF_PERICENTER":"60.6333","GP_ID":"223691737","OBJECT_TYPE":"PAYLOAD","OBJECT_ID":"2022-107Y","ECCENTRICITY":"0.00008230","FILE":"3761297","APOAPSIS":"540.355","COUNTRY_CODE":"US","SITE":"AFETR","SEMIMAJOR_AXIS":"6917.920","MEAN_ANOMALY":"299.4741","LAUNCH_DATE":"2022-09-05","ELEMENT_SET_NO":"999"},{"PERIOD":"95.438","MEAN_MOTION":"15.08838337","MEAN_MOTION_DDOT":"0.0000000000000","PERIAPSIS":"538.930","MEAN_ELEMENT_THEORY":"SGP4","CLASSIFICATION_TYPE":"U","DECAY_DATE":null,"EPOCH":"2023-01-25T13:14:10.719744","EPHEMERIS_TYPE":"0","FILE":"3761297","APOAPSIS":"540.571","COUNTRY_CODE":"US","TIME_SYSTEM":"UTC","ARG_OF_PERICENTER":"64.8029","GP_ID":"223692485","OBJECT_TYPE":"PAYLOAD","OBJECT_ID":"2022-107Z","ECCENTRICITY":"0.00011860","SEMIMAJOR_AXIS":"6917.885","MEAN_ANOMALY":"295.3086","LAUNCH_DATE":"2022-09-05","ELEMENT_SET_NO":"999","SITE":"AFETR","REV_AT_EPOCH":"2258","TLE_LINE2":"2 53723  53.2196 327.8172 0001186  64.8029 295.3086 15.08838337 22589","MEAN_MOTION_DOT":"0.00000682","BSTAR":"0.00006091100000","TLE_LINE1":"1 53723U 22107Z   23025.55151296  .00000682  00000-0  60911-4 0  9995","REF_FRAME":"TEME","RCS_SIZE":"LARGE","NORAD_CAT_ID":"53723","INCLINATION":"53.2196","OBJECT_NAME":"STARLINK-4705","RA_OF_ASC_NODE":"327.8172","CENTER_NAME":"EARTH"},{"TLE_LINE2":"2 53724  53.2198 327.7515 0001048  95.2530 264.8581 15.08841306 22440","MEAN_MOTION_DOT":"0.00000611","BSTAR":"0.00005645700000","REV_AT_EPOCH":"2244","TLE_LINE1":"1 53724U 22107AA  23025.54045658  .00000611  00000-0  56457-4 0  9991","INCLINATION":"53.2198","REF_FRAME":"TEME","RCS_SIZE":"LARGE","NORAD_CAT_ID":"53724","RA_OF_ASC_NODE":"327.7515","CENTER_NAME":"EARTH","OBJECT_NAME":"STARLINK-4663","MEAN_MOTION":"15.08841306","MEAN_MOTION_DDOT":"0.0000000000000","PERIOD":"95.437","DECAY_DATE":null,"EPOCH":"2023-01-25T12:58:15.448512","EPHEMERIS_TYPE":"0","PERIAPSIS":"539.016","MEAN_ELEMENT_THEORY":"SGP4","CLASSIFICATION_TYPE":"U","TIME_SYSTEM":"UTC","ARG_OF_PERICENTER":"95.2530","GP_ID":"223692736","OBJECT_TYPE":"PAYLOAD","OBJECT_ID":"2022-107AA","ECCENTRICITY":"0.00010480","FILE":"3761297","APOAPSIS":"540.466","COUNTRY_CODE":"US","SITE":"AFETR","SEMIMAJOR_AXIS":"6917.876","MEAN_ANOMALY":"264.8581","LAUNCH_DATE":"2022-09-05","ELEMENT_SET_NO":"999"}];
